#cP2022 12 10  0  0  0.00000000      96 ORBIT IGS20 HLM  IGS
## 2239 518400.00000000   900.00000000 59923 0.0000000000000
+   31   G01G02G03G04G05G06G07G08G09G10G11G12G13G14G15G16G17
+        G18G19G20G21G22G23G24G25G26G27G29G30G31G32  0  0  0
+          0  0  0  0  0  0  0  0  0  0  0  0  0  0  0  0  0
+          0  0  0  0  0  0  0  0  0  0  0  0  0  0  0  0  0
+          0  0  0  0  0  0  0  0  0  0  0  0  0  0  0  0  0
++         2  2  3  3  2  2  2  2  2  2  2  2  2  3  2  2  2
++         2  2  2  2  2  3  2  2  2  2  2  2  2  2  0  0  0
++         0  0  0  0  0  0  0  0  0  0  0  0  0  0  0  0  0
++         0  0  0  0  0  0  0  0  0  0  0  0  0  0  0  0  0
++         0  0  0  0  0  0  0  0  0  0  0  0  0  0  0  0  0
%c G  cc GPS ccc cccc cccc cccc cccc ccccc ccccc ccccc ccccc
%c cc cc ccc ccc cccc cccc cccc cccc ccccc ccccc ccccc ccccc
%f  1.2500000  1.025000000  0.00000000000  0.000000000000000
%f  0.0000000  0.000000000  0.00000000000  0.000000000000000
%i    0    0    0    0      0      0      0      0         0
%i    0    0    0    0      0      0      0      0         0
/* RAPID ORBIT COMBINATION FROM WEIGHTED AVERAGE OF:        
/* cod emr esa gfz grg jpl ngs sio usn whu                  
/* REFERENCED TO IGS TIME (IGST) AND TO WEIGHTED MEAN POLE: 
/* PCV:IGS20_2233 OL/AL:FES2004  NONE     Y  ORB:CMB CLK:CMB
*  2022 12 10  3 45  0.00000000
PG01  16292.308439   4038.782365  20364.155299    239.856736  2  2  5 101       
PG02 -15863.114454    640.850451 -20625.145865   -633.816341  6  7  5 126       
PG03  18964.331568  -6168.648267  17366.938082   -375.225074  6  5  6 115       
PG04  26169.976096    214.839682  -4857.090971    -71.401878  9  8  6  95       
PG05 -13160.069383  -7689.835063 -21924.669388   -107.486569  9  6  5 111       
PG06  -4840.518547 -24734.949434   8312.909026    536.954625  3  2  7 105       
PG07  10700.234743 -12131.744524 -20552.176850    276.545640  7  4  5 103       
PG08  25130.845984   6545.176350  -6494.308015    -97.899629  6  6  5 106       
PG09  20490.421138  -8680.484328 -14615.267167   -255.888296  6  4  5 126       
PG10  -9837.420400  23130.096557   8230.178941    -15.441318  3  9  6  82       
PG11 -12087.476159 -23293.750621  -4212.037558    -54.133115  5  6  8 101       
PG12 -19186.693817   4007.006325  17603.461647   -314.122166  6  6  7 103       
PG13 -19869.818355 -13308.617923 -11931.002836    439.295929  6  8  7 116       
PG14  12314.447548 -22701.276900   5934.816414    -70.638799  6 10  9  57       
PG15 -25636.850985  -4161.664418  -6669.217324     -5.392384  7  7  5 102       
PG16   9132.399079  12451.595145 -21854.737959   -526.336133  6  6  5  93       
PG17   8199.969176 -13553.368701  21774.440162    684.700753  5  6  5 110       
PG18  -8839.799356  14598.836452 -20310.216937    -53.239133  8 10  7 123       
PG19  -4950.509344 -15486.838132  20827.542371    248.473312  4  9  7  60       
PG20  -4990.932164 -18974.352221 -17982.252759    464.584188  7  7  6  94       
PG21  18928.625124  11589.515282  15744.505005    154.202053  2  5  5 115       
PG22   7978.587788  15866.621951  20228.451080    381.581485  3  4  3 119       
PG23 -16460.842290  20534.327033  -2963.438084     -0.156873 11 11  9 110       
PG24 -18646.105375  -7281.476453  17314.841006     22.679224  5  5  5 109       
PG25 -19370.696359  14236.946707  10673.236872    400.599238  7  6  7  73       
PG26    740.391593  21014.946968 -16123.446148    238.032066  5  5  4  85       
PG27  17507.813381  12723.845137 -15886.299473    157.211255  6  5  6 122       
PG29 -22483.134727   5036.037700 -13324.481797   -572.963029  5  8  5 119       
PG30   2087.948737 -22018.471430 -14428.336001   -535.645837  6  5  5 102       
PG31   5544.908132  24888.194999   6355.447154   -202.797387  8  9  5 114       
PG32  -4022.480783  14940.952160  21727.157528   -324.371805  6  8  6 120       
*  2022 12 10  4  0  0.00000000
PG01  17204.977617   6154.517950  19092.956802    239.851941  1  2  5 108       
PG02 -17013.582548  -1510.358144 -19651.144829   -633.814382  6  7  4 130       
PG03  17889.632486  -4357.897497  18979.594107   -375.225350  6  6  5 106       
PG04  26536.135845    496.514538  -2041.767931    -71.395530  9  8  6 107       
PG05 -11859.022595  -9784.061217 -21821.121054   -107.487566  9  6  6 108       
PG06  -4223.343609 -23819.702259  10937.512162    536.961737  4  4  7 112       
PG07  11851.310186  -9928.134137 -21128.340656    276.540905  7  5  5  93       
PG08  24241.866926   6714.307511  -9140.088547    -97.900943  5  6  5 108       
PG09  22011.092324  -8396.341971 -12392.795935   -255.882868  6  3  5 122       
PG10 -10449.758617  23646.121081   5469.316741    -15.442564  2  9  6  78       
PG11 -11990.522960 -23682.361628  -1374.878350    -54.139585  4  6  8 102       
PG12 -17965.355008   2227.414033  19127.599973   -314.125925  7  7  7 102       
PG13 -18403.013472 -13173.907065 -14228.099801    439.301703  6  8  7 123       
PG14  12853.097606 -22954.822578   3155.915952    -70.633261  5  9  8  73       
PG15 -24802.482230  -4502.500735  -9249.872979     -5.389524  7  7  5 107       
PG16   7561.291696  14282.788381 -21279.511626   -526.335422  5  7  4  96       
PG17  10520.772632 -13193.911682  20973.331217    684.703303  5  6  6 111       
PG18  -9906.801001  12473.578078 -21226.185699    -53.252157  8 10  8 124       
PG19  -2518.851286 -15094.721883  21509.112595    248.477866  3  8  7  79       
PG20  -4018.890175 -20684.880557 -16280.167218    464.581651  7  7  7 106       
PG21  19615.763003  12997.043172  13644.112215    154.200985  2  6  5 116       
PG22   5714.809170  15587.855261  21193.198695    381.588603  4  5  3 118       
PG23 -16385.845652  19987.287134  -5791.088712     -0.156381 10 11 10 110       
PG24 -19466.190133  -9042.053532  15565.104287     22.663787  5  4  5 109       
PG25 -18802.808077  12921.167236  13057.939429    400.602423  7  6  7  88       
PG26   -352.461868  22383.606715 -14131.034802    238.032941  5  6  5  95       
PG27  15634.971756  12716.544496 -17727.456200    157.202220  7  5  6 122       
PG29 -23820.055975   4672.170715 -10915.068816   -572.965369  5  7  5 123       
PG30   3071.684811 -20500.139726 -16371.257932   -535.645425  5  5  5  96       
PG31   4899.128222  24180.632126   9035.345335   -202.798197  8  9  5 118       
PG32  -6444.598865  14740.228041  21254.914987   -324.383585  6  8  6 123       
*  2022 12 10  4 15  0.00000000
PG01  18155.512479   8066.678734  17488.247078    239.847138  1  2  5 106       
PG02 -18197.441095  -3487.038031 -18318.251363   -633.812558  6  7  4 137       
PG03  16830.592635  -2349.583371  20261.323051   -375.225594  6  7  5 107       
PG04  26596.953896    743.761235    808.467869    -71.389177  9  8  6  97       
PG05 -10685.551239 -11916.946746 -21347.676260   -107.488706  8  7  7 112       
PG06  -3417.026416 -22689.511659  13373.644846    536.968886  4  5  6 116       
PG07  13128.332428  -7748.220849 -21324.967051    276.536246  7  6  5 106       
PG08  23074.458889   6934.383210 -11632.103072    -97.903500  5  6  5 112       
PG09  23282.040565  -8188.075540  -9958.450124   -255.877438  6  3  4 126       
PG10 -10872.388135  23918.114367   2612.883760    -15.443769  2  9  6  97       
PG11 -11771.371043 -23786.443624   1485.893021    -54.146045  3  6  8 103       
PG12 -16750.233273    257.917757  20314.136740   -314.130013  8  8  7 101       
PG13 -16689.505728 -13082.265829 -16285.050944    439.307673  6  8  7 120       
PG14  13206.475376 -22967.340738    322.312110    -70.627732  6  9  7  69       
PG15 -23710.594565  -4914.230396 -11676.467088     -5.386455  7  7  4 101       
PG16   6136.602227  16130.624808 -20344.677545   -526.334862  5  8  4 106       
PG17  12750.930433 -12971.978004  19825.549204    684.706948  6  7  6 111       
PG18 -11125.456933  10336.775902 -21776.026034    -53.265239  8  9  8 126       
PG19    -10.510931 -14827.353937  21813.724421    248.482664  3  8  7  82       
PG20  -3210.547685 -22247.735210 -14300.043650    464.579542  7  8  7 111       
PG21  20241.868670  14165.622398  11325.070239    154.200189  2  6  6 116       
PG22   3351.869169  15422.342883  21807.741483    381.595516  4  5  3 123       
PG23 -16186.877840  19160.912586  -8518.237078     -0.155867 10 11 10 121       
PG24 -20249.604763 -10579.566881  13546.060966     22.648441  4  4  4 112       
PG25 -18171.215399  11352.515441  15210.847388    400.605590  6  6  8  91       
PG26  -1271.355937  23591.288128 -11893.057262    238.033778  5  6  6 100       
PG27  13574.032589  12810.175804 -19272.987676    157.193150  7  5  5 119       
PG29 -24892.883546   4406.772287  -8318.961254   -572.967598  5  7  5 117       
PG30   4223.000051 -18851.228587 -18027.769621   -535.644900  5  5  6 107       
PG31   4079.098367  23243.038216  11554.618692   -202.799271  7  9  4 119       
PG32  -8802.673506  14665.890458  20420.892160   -324.395384  5  7  6 125       
EOF
